{
    "links": {
        "self": "http://www.neowsapp.com/rest/v1/neo/3843646?api_key=iIulBulltgU6a56xZRHN4H3l9WmuAYTsLGpBGhQ2"
    },
    "id": "3843646",
    "neo_reference_id": "3843646",
    "name": "(2019 QV4)",
    "designation": "2019 QV4",
    "nasa_jpl_url": "http://ssd.jpl.nasa.gov/sbdb.cgi?sstr=3843646",
    "absolute_magnitude_h": 24.3,
    "estimated_diameter": {
        "kilometers": {
            "estimated_diameter_min": 0.0366906138,
            "estimated_diameter_max": 0.0820427065
        },
        "meters": {
            "estimated_diameter_min": 36.6906137531,
            "estimated_diameter_max": 82.0427064882
        },
        "miles": {
            "estimated_diameter_min": 0.0227984834,
            "estimated_diameter_max": 0.0509789586
        },
        "feet": {
            "estimated_diameter_min": 120.3760332259,
            "estimated_diameter_max": 269.1689931548
        }
    },
    "is_potentially_hazardous_asteroid": false,
    "close_approach_data": [
        {
            "close_approach_date": "2017-09-25",
            "close_approach_date_full": "2017-Sep-25 17:02",
            "epoch_date_close_approach": 1506358920000,
            "relative_velocity": {
                "kilometers_per_second": "12.9126063353",
                "kilometers_per_hour": "46485.3828069508",
                "miles_per_hour": "28884.2091113523"
            },
            "miss_distance": {
                "astronomical": "0.27310655",
                "lunar": "106.23844795",
                "kilometers": "40856158.1630485",
                "miles": "25386839.4791293"
            },
            "orbiting_body": "Earth"
        },
        {
            "close_approach_date": "2019-08-29",
            "close_approach_date_full": "2019-Aug-29 02:19",
            "epoch_date_close_approach": 1567045140000,
            "relative_velocity": {
                "kilometers_per_second": "8.5778618431",
                "kilometers_per_hour": "30880.3026352779",
                "miles_per_hour": "19187.8191569036"
            },
            "miss_distance": {
                "astronomical": "0.0256868525",
                "lunar": "9.9921856225",
                "kilometers": "3842698.421004175",
                "miles": "2387742.077740615"
            },
            "orbiting_body": "Earth"
        },
        {
            "close_approach_date": "2021-07-30",
            "close_approach_date_full": "2021-Jul-30 06:00",
            "epoch_date_close_approach": 1627624800000,
            "relative_velocity": {
                "kilometers_per_second": "12.1208202455",
                "kilometers_per_hour": "43634.9528836531",
                "miles_per_hour": "27113.0628070677"
            },
            "miss_distance": {
                "astronomical": "0.2459911904",
                "lunar": "95.6905730656",
                "kilometers": "36799758.122604448",
                "miles": "22866309.3725314624"
            },
            "orbiting_body": "Earth"
        }
    ],
    "orbital_data": {
        "orbit_id": "14",
        "orbit_determination_date": "2020-09-11 07:43:59",
        "first_observation_date": "2019-08-28",
        "last_observation_date": "2019-09-12",
        "data_arc_in_days": 15,
        "observations_used": 209,
        "orbit_uncertainty": "7",
        "minimum_orbit_intersection": ".0256867",
        "jupiter_tisserand_invariant": "4.329",
        "epoch_osculation": "2459000.5",
        "eccentricity": ".3386120974558998",
        "semi_major_axis": "1.565187900472168",
        "inclination": "13.36898060724943",
        "ascending_node_longitude": "334.6320535106563",
        "orbital_period": "715.2339975954314",
        "perihelion_distance": "1.035196342580691",
        "perihelion_argument": "1.62468791436503",
        "aphelion_distance": "2.095179458363645",
        "perihelion_time": "2458725.831346609299",
        "mean_anomaly": "138.2494617888448",
        "mean_motion": ".5033317784253766",
        "equinox": "J2000",
        "orbit_class": {
            "orbit_class_type": "AMO",
            "orbit_class_description": "Near-Earth asteroid orbits similar to that of 1221 Amor",
            "orbit_class_range": "1.017 AU < q (perihelion) < 1.3 AU"
        }
    },
    "is_sentry_object": false
}